NORAD_CAT_ID,OBJECT_NAME,OBJECT_TYPE,EPOCH,MEAN_MOTION,ECCENTRICITY,INCLINATION,RA_OF_ASC_NODE,ARG_OF_PERICENTER,MEAN_ANOMALY,BSTAR,MEAN_MOTION_DOT,MEAN_MOTION_DDOT,TLE_LINE0,TLE_LINE1,TLE_LINE2,SEMIMAJOR_AXIS,PERIOD,APOGEE,PERIGEE,DECAYED
52096.0,STARLINK-3717,PAYLOAD,2024-06-02 03:14:47,15.08831466,0.0001354,53.2185,97.1296,91.4394,268.6754,3.0768e-05,2.02e-06,0.0,0 STARLINK-3717,1 52096U 22029J   24154.13527248  .00000202  00000-0  30768-4 0  9997,2 52096  53.2185  97.1296 0001354  91.4394 268.6754 15.08831466123326,6917.906,95.438,540.708,538.835,0.0
52096.0,STARLINK-3717,PAYLOAD,2024-06-02 12:47:06,15.08838479,0.0001325,53.2188,95.3461,88.7598,271.3546,2.9914e-05,1.88e-06,0.0,0 STARLINK-3717,1 52096U 22029J   24154.53270955  .00000188  00000-0  29914-4 0  9995,2 52096  53.2188  95.3461 0001325  88.7598 271.3546 15.08838479123383,6917.885,95.438,540.667,538.833,0.0
52096.0,STARLINK-3717,PAYLOAD,2024-06-03 04:40:58,15.08833733,0.0001371,53.2199,92.3729,86.969,273.1459,1.3715e-05,-7e-07,0.0,0 STARLINK-3717,1 52096U 22029J   24155.19511624 -.00000070  00000-0  13715-4 0  9992,2 52096  53.2199  92.3729 0001371  86.9690 273.1459 15.08833733123485,6917.9,95.438,540.713,538.816,0.0
52096.0,STARLINK-3717,PAYLOAD,2024-06-03 12:37:52,15.08847438,0.0001367,53.2196,90.8859,87.6842,272.4307,0.0001462,2.04e-05,0.0,0 STARLINK-3717,1 52096U 22029J   24155.52630420  .00002040  00000-0  14620-3 0  9998,2 52096  53.2196  90.8859 0001367  87.6842 272.4307 15.08847438123538,6917.858,95.437,540.668,538.777,0.0
52096.0,STARLINK-3717,PAYLOAD,2024-06-04 04:31:44,15.08839019,0.0001537,53.2201,87.9117,81.5182,278.5984,0.00012844,1.757e-05,0.0,0 STARLINK-3717,1 52096U 22029J   24156.18871338  .00001757  00000-0  12844-3 0  9996,2 52096  53.2201  87.9117 0001537  81.5182 278.5984 15.08839019123633,6917.883,95.438,540.812,538.685,0.0
52096.0,STARLINK-3717,PAYLOAD,2024-06-04 12:28:39,15.08856556,0.0001644,53.2197,86.4232,69.8546,290.2623,0.00021068,3.068e-05,0.0,0 STARLINK-3717,1 52096U 22029J   24156.51989982  .00003068  00000-0  21068-3 0  9993,2 52096  53.2197  86.4232 0001644  69.8546 290.2623 15.08856556123682,6917.83,95.437,540.832,538.557,0.0
52096.0,STARLINK-3717,PAYLOAD,2024-06-04 18:50:12,15.08851363,0.000272,53.2196,85.2366,78.4892,281.6405,0.00023162,3.401e-05,0.0,0 STARLINK-3717,1 52096U 22029J   24156.78486577  .00003401  00000-0  23162-3 0  9992,2 52096  53.2196  85.2366 0002720  78.4892 281.6405 15.08851363123720,6917.846,95.437,541.592,537.829,0.0
52096.0,STARLINK-3717,PAYLOAD,2024-06-05 02:47:05,15.08879372,0.000137,53.218,83.747,77.7464,282.3681,0.00029894,4.478e-05,0.0,0 STARLINK-3717,1 52096U 22029J   24157.11604073  .00004478  00000-0  29894-3 0  9996,2 52096  53.2180  83.7470 0001370  77.7464 282.3681 15.08879372123778,6917.76,95.435,540.573,538.677,0.0
52096.0,STARLINK-3717,PAYLOAD,2024-06-05 12:19:26,15.08848117,0.0001631,53.2185,81.9662,82.2512,277.8665,2.6194e-05,1.29e-06,0.0,0 STARLINK-3717,1 52096U 22029J   24157.51350464  .00000129  00000-0  26194-4 0  9992,2 52096  53.2185  81.9662 0001631  82.2512 277.8665 15.08848117123832,6917.856,95.437,540.849,538.592,0.0
52096.0,STARLINK-3717,PAYLOAD,2024-06-05 18:40:59,15.08839244,0.0001691,53.2166,80.7771,81.8345,278.2839,8.0686e-05,9.96e-06,0.0,0 STARLINK-3717,1 52096U 22029J   24157.77846857  .00000996  00000-0  80686-4 0  9994,2 52096  53.2166  80.7771 0001691  81.8345 278.2839 15.08839244123877,6917.883,95.438,540.918,538.578,0.0
52096.0,STARLINK-3717,PAYLOAD,2024-06-06 12:10:13,15.08849672,0.0001591,53.2171,77.5045,79.4661,280.651,-2.116e-05,-6.25e-06,0.0,0 STARLINK-3717,1 52096U 22029J   24158.50710436 -.00000625  00000-0 -21160-4 0  9992,2 52096  53.2171  77.5045 0001591  79.4661 280.6510 15.08849672123985,6917.851,95.437,540.816,538.615,0.0
52096.0,STARLINK-3717,PAYLOAD,2024-06-07 18:22:34,15.08825038,0.0001288,53.2214,71.8531,103.2284,256.8852,0.00028891,4.311e-05,0.0,0 STARLINK-3717,1 52096U 22029J   24159.76567653  .00004311  00000-0  28891-3 0  9993,2 52096  53.2214  71.8531 0001288 103.2284 256.8852 15.08825038124176,6917.926,95.439,540.682,538.9,0.0
52096.0,STARLINK-3717,PAYLOAD,2024-06-08 00:44:07,15.0883925,0.0001684,53.2187,70.6652,90.4099,269.7086,0.00035899,5.43e-05,0.0,0 STARLINK-3717,1 52096U 22029J   24160.03063772  .00005430  00000-0  35899-3 0  9997,2 52096  53.2187  70.6652 0001684  90.4099 269.7086 15.08839250124215,6917.883,95.438,540.913,538.583,0.0
52096.0,STARLINK-3717,PAYLOAD,2024-06-08 18:13:21,15.08840423,0.000251,53.2177,67.3935,92.318,267.8099,0.00024022,3.537e-05,0.0,0 STARLINK-3717,1 52096U 22029J   24160.75928043  .00003537  00000-0  24022-3 0  9999,2 52096  53.2177  67.3935 0002510  92.3180 267.8099 15.08840423124321,6917.879,95.438,541.48,538.008,0.0
52096.0,STARLINK-3717,PAYLOAD,2024-06-09 03:45:40,15.08834404,0.0001662,53.2181,65.6097,99.3225,260.7955,-1.7717e-05,-5.7e-06,0.0,0 STARLINK-3717,1 52096U 22029J   24161.15672058 -.00000570  00000-0 -17717-4 0  9996,2 52096  53.2181  65.6097 0001662  99.3225 260.7955 15.08834404124381,6917.897,95.438,540.912,538.613,0.0
52096.0,STARLINK-3717,PAYLOAD,2024-06-09 22:50:18,15.08837238,0.0001558,53.2178,62.0416,102.0118,258.1049,6.9366e-05,8.16e-06,0.0,0 STARLINK-3717,1 52096U 22029J   24161.95160226  .00000816  00000-0  69366-4 0  9991,2 52096  53.2178  62.0416 0001558 102.0118 258.1049 15.08837238124507,6917.889,95.438,540.832,538.676,0.0
52096.0,STARLINK-3717,PAYLOAD,2024-06-10 09:58:00,15.08851357,0.000139,53.2179,59.9611,94.8953,265.2198,0.0003445,5.201e-05,0.0,0 STARLINK-3717,1 52096U 22029J   24162.41527821  .00005201  00000-0  34450-3 0  9999,2 52096  53.2179  59.9611 0001390  94.8953 265.2198 15.08851357124578,6917.846,95.437,540.672,538.749,0.0
52096.0,STARLINK-3717,PAYLOAD,2024-06-10 21:05:42,15.08832767,0.0001269,53.217,57.8801,97.7999,262.3137,0.00011533,1.548e-05,0.0,0 STARLINK-3717,1 52096U 22029J   24162.87896715  .00001548  00000-0  11533-3 0  9997,2 52096  53.2170  57.8801 0001269  97.7999 262.3137 15.08832767124647,6917.902,95.438,540.645,538.89,0.0
52096.0,STARLINK-3717,PAYLOAD,2024-06-10 22:41:05,15.08835596,0.0001348,53.217,57.5829,98.7394,261.3751,0.0001649,2.337e-05,0.0,0 STARLINK-3717,1 52096U 22029J   24162.94520655  .00002337  00000-0  16490-3 0  9996,2 52096  53.2170  57.5829 0001348  98.7394 261.3751 15.08835596124657,6917.894,95.438,540.691,538.826,0.0
52096.0,STARLINK-3717,PAYLOAD,2024-06-11 09:48:47,15.08860176,0.0001276,53.2173,55.5009,87.1824,272.9314,0.0006176,9.56e-05,0.0,0 STARLINK-3717,1 52096U 22029J   24163.40887781  .00009560  00000-0  61760-3 0  9999,2 52096  53.2173  55.5009 0001276  87.1824 272.9314 15.08860176124721,6917.819,95.436,540.566,538.801,0.0
52096.0,STARLINK-3717,PAYLOAD,2024-06-12 01:42:38,15.08839891,0.0001368,53.2168,52.5272,81.9249,278.1898,0.00057437,8.865e-05,0.0,0 STARLINK-3717,1 52096U 22029J   24164.07128458  .00008865  00000-0  57437-3 0  9995,2 52096  53.2168  52.5272 0001368  81.9249 278.1898 15.08839891124825,6917.881,95.438,540.692,538.799,0.0
52096.0,STARLINK-3717,PAYLOAD,2024-06-12 20:47:16,15.08842167,0.0001466,53.2165,48.9572,72.0216,288.0935,0.00051268,7.881e-05,0.0,0 STARLINK-3717,1 52096U 22029J   24164.86616781  .00007881  00000-0  51268-3 0  9996,2 52096  53.2165  48.9572 0001466  72.0216 288.0935 15.08842167124943,6917.874,95.437,540.753,538.725,0.0
52096.0,STARLINK-3717,PAYLOAD,2024-06-12 22:22:40,15.08841219,0.0001409,53.2162,48.6598,72.163,287.9515,0.00044021,6.725e-05,0.0,0 STARLINK-3717,1 52096U 22029J   24164.93240781  .00006725  00000-0  44021-3 0  9992,2 52096  53.2162  48.6598 0001409  72.1630 287.9515 15.08841219124953,6917.877,95.437,540.716,538.767,0.0
52096.0,STARLINK-3717,PAYLOAD,2024-06-13 09:30:21,15.08844354,0.0001323,53.2164,46.5779,97.4571,262.6571,0.00034369,5.187e-05,0.0,0 STARLINK-3717,1 52096U 22029J   24165.39608596  .00005187  00000-0  34369-3 0  9990,2 52096  53.2164  46.5779 0001323  97.4571 262.6571 15.08844354125026,6917.867,95.437,540.647,538.817,0.0
52096.0,STARLINK-3717,PAYLOAD,2024-06-13 22:13:27,15.08842978,0.0001356,53.2166,44.2012,91.6433,268.4714,0.00017429,2.487e-05,0.0,0 STARLINK-3717,1 52096U 22029J   24165.92600723  .00002487  00000-0  17429-3 0  9991,2 52096  53.2166  44.2012 0001356  91.6433 268.4714 15.08842978125104,6917.871,95.437,540.674,538.798,0.0
52096.0,STARLINK-3717,PAYLOAD,2024-06-14 09:21:08,15.0885428,0.0001498,53.2161,42.1162,96.2642,263.8521,0.00035739,5.407e-05,0.0,0 STARLINK-3717,1 52096U 22029J   24166.38968146  .00005407  00000-0  35739-3 0  9997,2 52096  53.2161  42.1162 0001498  96.2642 263.8521 15.08854280125173,6917.837,95.437,540.738,538.665,0.0
52096.0,STARLINK-3717,PAYLOAD,2024-06-14 22:04:13,15.0884222,0.0001319,53.2165,39.7394,92.0706,268.0437,8.9054e-05,1.13e-05,0.0,0 STARLINK-3717,1 52096U 22029J   24166.91960405  .00001130  00000-0  89054-4 0  9995,2 52096  53.2165  39.7394 0001319  92.0706 268.0437 15.08842220125256,6917.874,95.437,540.651,538.826,0.0
52096.0,STARLINK-3717,PAYLOAD,2024-06-15 21:55:00,15.08844121,0.000136,53.2166,35.2772,94.979,265.1357,0.00011992,1.621e-05,0.0,0 STARLINK-3717,1 52096U 22029J   24167.91320236  .00001621  00000-0  11992-3 0  9998,2 52096  53.2166  35.2772 0001360  94.9790 265.1357 15.08844121125406,6917.868,95.437,540.674,538.792,0.0
52096.0,STARLINK-3717,PAYLOAD,2024-06-16 01:05:46,15.08843464,0.0001425,53.2181,34.6827,97.3347,262.7807,7.5743e-05,9.18e-06,0.0,0 STARLINK-3717,1 52096U 22029J   24168.04568253  .00000918  00000-0  75743-4 0  9999,2 52096  53.2181  34.6827 0001425  97.3347 262.7807 15.08843464125428,6917.87,95.437,540.721,538.749,0.0
52096.0,STARLINK-3717,PAYLOAD,2024-06-16 21:45:48,15.08836283,0.0001288,53.2175,30.816,94.2236,265.8903,4.0542e-05,3.57e-06,0.0,0 STARLINK-3717,1 52096U 22029J   24168.90680724  .00000357  00000-0  40542-4 0  9998,2 52096  53.2175  30.8160 0001288  94.2236 265.8903 15.08836283125555,6917.892,95.438,540.648,538.866,0.0
